[{"OBJECT_NAME":"LEO EXPRESS 1","OBJECT_ID":"2023-174AX","EPOCH":"2026-03-09T18:25:46.135776","MEAN_MOTION":15.32756831,"ECCENTRICITY":0.00787345,"INCLINATION":97.5222,"RA_OF_ASC_NODE":152.4092,"ARG_OF_PERICENTER":115.921,"MEAN_ANOMALY":245.0174,"EPHEMERIS_TYPE":0,"CLASSIFICATION_TYPE":"U","NORAD_CAT_ID":58301,"ELEMENT_SET_NO":999,"REV_AT_EPOCH":12965,"BSTAR":0.00049741019,"MEAN_MOTION_DOT":0.00017303,"MEAN_MOTION_DDOT":0},{"OBJECT_NAME":"STARLINK-36142","OBJECT_ID":"2025-288Y","EPOCH":"2026-03-09T22:28:07.109760","MEAN_MOTION":15.27581229,"ECCENTRICITY":0.00013217,"INCLINATION":42.999,"RA_OF_ASC_NODE":22.1857,"ARG_OF_PERICENTER":245.7246,"MEAN_ANOMALY":114.3468,"EPHEMERIS_TYPE":0,"CLASSIFICATION_TYPE":"U","NORAD_CAT_ID":66981,"ELEMENT_SET_NO":999,"REV_AT_EPOCH":1532,"BSTAR":0.0011063281,"MEAN_MOTION_DOT":0.00030308,"MEAN_MOTION_DDOT":0}]
